{
  "links" : {
    "next" : "https://api.nasa.gov/neo/rest/v1/feed?start_date=2006-09-23&end_date=2006-09-23&detailed=true&api_key=t0TVs3DtDT2H8Oy2Zy8m2eVrNsAVKAexjcZXUckd",
    "prev" : "https://api.nasa.gov/neo/rest/v1/feed?start_date=2006-09-21&end_date=2006-09-21&detailed=true&api_key=t0TVs3DtDT2H8Oy2Zy8m2eVrNsAVKAexjcZXUckd",
    "self" : "https://api.nasa.gov/neo/rest/v1/feed?start_date=2006-09-22&end_date=2006-09-22&detailed=true&api_key=t0TVs3DtDT2H8Oy2Zy8m2eVrNsAVKAexjcZXUckd"
  },
  "element_count" : 10,
  "near_earth_objects" : {
    "2006-09-22" : [ {
      "links" : {
        "self" : "https://api.nasa.gov/neo/rest/v1/neo/3692287?api_key=t0TVs3DtDT2H8Oy2Zy8m2eVrNsAVKAexjcZXUckd"
      },
      "neo_reference_id" : "3692287",
      "name" : "(2014 TC)",
      "nasa_jpl_url" : "http://ssd.jpl.nasa.gov/sbdb.cgi?sstr=3692287",
      "absolute_magnitude_h" : 26.2,
      "estimated_diameter" : {
        "kilometers" : {
          "estimated_diameter_min" : 0.0152951935,
          "estimated_diameter_max" : 0.0342010925
        },
        "meters" : {
          "estimated_diameter_min" : 15.2951935344,
          "estimated_diameter_max" : 34.201092472
        },
        "miles" : {
          "estimated_diameter_min" : 0.0095039897,
          "estimated_diameter_max" : 0.021251567
        },
        "feet" : {
          "estimated_diameter_min" : 50.1810827555,
          "estimated_diameter_max" : 112.2083122258
        }
      },
      "is_potentially_hazardous_asteroid" : false,
      "close_approach_data" : [ {
        "close_approach_date" : "2006-09-22",
        "epoch_date_close_approach" : 1158908400000,
        "relative_velocity" : {
          "kilometers_per_second" : "19.6864866601",
          "kilometers_per_hour" : "70871.3519764248",
          "miles_per_hour" : "44036.702010018"
        },
        "miss_distance" : {
          "astronomical" : "0.3804831466",
          "lunar" : "148.0079498291",
          "kilometers" : "56919468",
          "miles" : "35368120"
        },
        "orbiting_body" : "Earth"
      } ],
      "orbital_data" : {
        "orbit_id" : "3",
        "orbit_determination_date" : "2017-04-06 08:38:17",
        "orbit_uncertainty" : "6",
        "minimum_orbit_intersection" : ".0155137",
        "jupiter_tisserand_invariant" : "6.388",
        "epoch_osculation" : "2458000.5",
        "eccentricity" : ".244284104276878",
        "semi_major_axis" : ".929131053110323",
        "inclination" : "15.95315003758984",
        "ascending_node_longitude" : "188.0441622448986",
        "orbital_period" : "327.125115975312",
        "perihelion_distance" : ".7021591060454354",
        "perihelion_argument" : "306.1451095106948",
        "aphelion_distance" : "1.156103000175211",
        "perihelion_time" : "2458004.887491543605",
        "mean_anomaly" : "355.1715815186231",
        "mean_motion" : "1.100496361848196",
        "equinox" : "J2000"
      }
    } ]
  }
}